PETREL                  
1 69503U 26132B   26192.71731496  .00000975  00000+0  84846-4 0  9999
2 69503  97.6914 256.0822 0014111 178.9573 181.1681 14.99181497  4456
BRO-22                  
1 69504U 26132C   26192.63830457  .00000617  00000+0  54610-4 0  9997
2 69504  97.6832 256.0050 0016173 193.6747 166.4040 14.99799209  4446
HORN-L                  
1 69505U 26132D   26191.59874568  .00002811  00000+0  16993-3 0  9992
2 69505  97.6828 255.1999 0028853 224.9163 134.9732 15.11180435  4305
VERTECS                 
1 69506U 26132E   26192.41569134  .00001079  00000+0  89135-4 0  9999
2 69506  97.6827 255.8474 0015368 219.4565 140.5541 15.00983348  4406
HORN-R                  
1 69507U 26132F   26190.44429351  .00000975  00000+0  72043-4 0  9991
2 69507  97.6839 253.9669 0019226 226.0665 133.8976 15.05461380  4114
STARLINK-37536          
1 69508U 26133A   26192.44987641  .00030706  00000+0  55767-3 0  9994
2 69508  53.1576 202.7623 0000862  72.4560 287.6543 15.49325262  4579
STARLINK-37341          
1 69509U 26133B   26192.45172674  .00045355  00000+0  81801-3 0  9992
2 69509  53.1590 202.7751 0000993  56.6800 303.4304 15.49336557  4586
STARLINK-37552          
1 69513U 26133F   26192.06410775  .00029436  00000+0  53501-3 0  9999
2 69513  53.1587 204.6185 0001857  69.2199 290.9009 15.49325269  5783
STARLINK-37232          
1 69515U 26133H   26192.36187136  .00047269  00000+0  85187-3 0  9995
2 69515  53.1599 202.9120 0000675  15.5329 344.5701 15.49340823  4567
STARLINK-37357          
1 69517U 26133K   26192.45043323  .00036021  00000+0  65182-3 0  9993
2 69517  53.1648 202.7655 0001043 345.0957  15.0022 15.49348618  5830
STARLINK-37408          
1 69518U 26133L   26192.51416289 -.00353335  00000+0 -67416-2 0  9999
2 69518  53.1597 201.7144 0000903 166.7623 193.3410 15.48863350  5866
STARLINK-37570          
1 69519U 26133M   26192.36453360  .00045435  00000+0  81939-3 0  9998
2 69519  53.1605 202.9265 0000754  48.0204 312.0869 15.49338344  5831
STARLINK-37510          
1 69520U 26133N   26192.42439216  .00017361  00000+0  31946-3 0  9991
2 69520  53.1551 202.5861 0001722  94.9924 265.1281 15.49313018  5844
STARLINK-37379          
1 69522U 26133Q   26192.46165182  .00030935  00000+0  56143-3 0  9993
2 69522  53.1606 202.0992 0000548 221.7908 138.3059 15.49341064  5851
STARLINK-37429          
1 69523U 26133R   26191.53145370  .00056376  00000+0  10132-2 0  9992
2 69523  53.1595 206.9677 0001182  74.4967 285.6173 15.49342375  5708
STARLINK-37352          
1 69524U 26133S   26192.39575793  .00044891  00000+0  80941-3 0  9999
2 69524  53.1619 202.3954 0000704 150.9895 209.1154 15.49349205  5847
STARLINK-37438          
1 69526U 26133U   26192.40979812  .00032330  00000+0  58644-3 0  9993
2 69526  53.1593 202.4873 0001031  81.2697 278.8429 15.49333091  5845
STARLINK-37523          
1 69528U 26133W   26192.00595370  .00031578  00000+0  57286-3 0  9998
2 69528  53.1554 204.2292 0002567  79.6135 280.5163 15.49341122  5784
STARLINK-37369          
1 69529U 26133X   26192.00242838  .00046150  00000+0  83235-3 0  9992
2 69529  53.1589 204.2045 0001077  86.3007 273.8125 15.49328692  5787
STARLINK-37670          
1 69530U 26133Y   26192.40445450  .00041533  00000+0  74986-3 0  9996
2 69530  53.1606 202.4495 0001066  90.6092 269.5039 15.49346785  5844
